NORAD_CAT_ID,OBJECT_NAME,OBJECT_TYPE,EPOCH,MEAN_MOTION,ECCENTRICITY,INCLINATION,RA_OF_ASC_NODE,ARG_OF_PERICENTER,MEAN_ANOMALY,BSTAR,MEAN_MOTION_DOT,MEAN_MOTION_DDOT,TLE_LINE0,TLE_LINE1,TLE_LINE2,SEMIMAJOR_AXIS,PERIOD,APOGEE,PERIGEE,DECAYED
50848.0,STARLINK-3315,PAYLOAD,2022-10-13 11:08:07,15.08832568,0.0002440999999999,53.2166,0.193,31.8727,328.2412,8.866399999999999e-05,1.123e-05,0.0,0 STARLINK-3315,1 50848U 22001AX  22286.46397730  .00001123  00000-0  88664-4 0  9992,2 50848  53.2166   0.1930 0002441  31.8727 328.2412 15.08832568 42589,6917.903,95.438,541.457,538.0790000000002,0.0
50848.0,STARLINK-3315,PAYLOAD,2022-10-14 01:26:35,15.08837742,0.0002335999999999,53.2164,357.5156,31.5594,328.5537,0.00022498,3.294e-05,0.0,0 STARLINK-3315,1 50848U 22001AX  22287.06013131  .00003294  00000-0  22498-3 0  9992,2 50848  53.2164 357.5156 0002336  31.5594 328.5537 15.08837742 43983,6917.887,95.438,541.368,538.136,0.0
50848.0,STARLINK-3315,PAYLOAD,2022-10-14 10:58:54,15.08844733,0.0002419,53.2161,355.732,32.133,327.9809,0.00013766,1.904e-05,0.0,0 STARLINK-3315,1 50848U 22001AX  22287.45756984  .00001904  00000-0  13766-3 0  9999,2 50848  53.2161 355.7320 0002419  32.1330 327.9809 15.08844733 42735,6917.866,95.437,541.404,538.057,0.0
50848.0,STARLINK-3315,PAYLOAD,2022-10-14 23:41:58,15.08852122,0.0002345,53.2163,353.3527,32.859,327.2547,0.00017288,2.465e-05,0.0,0 STARLINK-3315,1 50848U 22001AX  22287.98748048  .00002465  00000-0  17288-3 0  9995,2 50848  53.2163 353.3527 0002345  32.8590 327.2547 15.08852122 44121,6917.843000000003,95.437,541.331,538.086,0.0
50848.0,STARLINK-3315,PAYLOAD,2022-10-15 10:49:40,15.08844299,0.0002488,53.2163,351.2723,32.3535,327.761,4.603100000000002e-05,4.44e-06,0.0,0 STARLINK-3315,1 50848U 22001AX  22288.45116737  .00000444  00000-0  46031-4 0  9996,2 50848  53.2163 351.2723 0002488  32.3535 327.7610 15.08844299 44197,6917.8669999999975,95.437,541.453,538.011,0.0
50848.0,STARLINK-3315,PAYLOAD,2022-10-16 02:43:32,15.08837055,0.0002617,53.2154,348.2972,29.4483,330.6657,-7.7766e-05,-1.526e-05,0.0,0 STARLINK-3315,1 50848U 22001AX  22289.11357499 -.00001526  00000-0 -77766-4 0  9995,2 50848  53.2154 348.2972 0002617  29.4483 330.6657 15.08837055 44299,6917.889,95.438,541.565,537.944,0.0
50848.0,STARLINK-3315,PAYLOAD,2022-10-16 10:40:30,15.08816524,0.000248,53.216,346.8105,31.9866,328.1277,-0.00021685,-3.736e-05,0.0,0 STARLINK-3315,1 50848U 22001AX  22289.44479399 -.00003736  00000-0 -21685-3 0  9998,2 50848  53.2160 346.8105 0002480  31.9866 328.1277 15.08816524 44343,6917.9519999999975,95.439,541.533,538.101,0.0
50848.0,STARLINK-3315,PAYLOAD,2022-10-16 13:51:16,15.08815573,0.0002513,53.2162,346.217,31.0759,329.0381,-0.00028087,-4.753e-05,0.0,0 STARLINK-3315,1 50848U 22001AX  22289.57727843 -.00004753  00000-0 -28087-3 0  9995,2 50848  53.2162 346.2170 0002513  31.0759 329.0381 15.08815573 43056,6917.955,95.439,541.559,538.082,0.0
50848.0,STARLINK-3315,PAYLOAD,2022-10-17 04:09:44,15.08821824,0.0002573,53.2172,343.5412,26.0045,334.1076,-5.5812e-05,-1.176e-05,0.0,0 STARLINK-3315,1 50848U 22001AX  22290.17343289 -.00001176  00000-0 -55812-4 0  9994,2 50848  53.2172 343.5412 0002573  26.0045 334.1076 15.08821824 44453,6917.936,95.439,541.581,538.021,0.0
50848.0,STARLINK-3315,PAYLOAD,2022-10-17 10:31:16,15.0882899,0.0002543,53.2163,342.3522,32.7848,327.3301,-1.1077e-05,-4.65e-06,0.0,0 STARLINK-3315,1 50848U 22001AX  22290.43838952 -.00000465  00000-0 -11077-4 0  9994,2 50848  53.2163 342.3522 0002543  32.7848 327.3301 15.08828990 43189,6917.9140000000025,95.438,541.538,538.02,0.0
50848.0,STARLINK-3315,PAYLOAD,2022-10-17 20:03:35,15.08833167,0.0002598,53.2168,340.5669,32.3463,327.7688,8.3419e-05,1.039e-05,0.0,0 STARLINK-3315,1 50848U 22001AX  22290.83582705  .00001039  00000-0  83419-4 0  9995,2 50848  53.2168 340.5669 0002598  32.3463 327.7688 15.08833167 43246,6917.901,95.438,541.564,537.969,0.0
50848.0,STARLINK-3315,PAYLOAD,2022-10-18 08:46:41,15.08823994,0.0002488,53.217,338.1868,27.2878,332.8244,0.00013678,1.888e-05,0.0,0 STARLINK-3315,1 50848U 22001AX  22291.36575378  .00001888  00000-0  13678-3 0  9993,2 50848  53.2170 338.1868 0002488  27.2878 332.8244 15.08823994 43325,6917.929,95.439,541.515,538.073,0.0
50848.0,STARLINK-3315,PAYLOAD,2022-10-19 02:15:55,15.08834161,0.0002764,53.2161,334.9168,26.2438,333.8693,9.8751e-05,1.283e-05,0.0,0 STARLINK-3315,1 50848U 22001AX  22292.09439595  .00001283  00000-0  98751-4 0  9999,2 50848  53.2161 334.9168 0002764  26.2438 333.8693 15.08834161 44744,6917.898,95.438,541.675,537.851,0.0
50848.0,STARLINK-3315,PAYLOAD,2022-10-19 11:48:14,15.08837006,0.000266,53.2162,333.1327,29.3943,330.7198,0.00010958,1.456e-05,0.0,0 STARLINK-3315,1 50848U 22001AX  22292.49183492  .00001456  00000-0  10958-3 0  9999,2 50848  53.2162 333.1327 0002660  29.3943 330.7198 15.08837006 43491,6917.89,95.438,541.595,537.914,0.0
50848.0,STARLINK-3315,PAYLOAD,2022-10-20 02:06:41,15.0885012,0.0002645,53.2158,330.4557,27.9317,332.1817,8.22e-05,1.02e-05,0.0,0 STARLINK-3315,1 50848U 22001AX  22293.08798516  .00001020  00000-0  82200-4 0  9991,2 50848  53.2158 330.4557 0002645  27.9317 332.1817 15.08850120 44894,6917.849,95.437,541.544,537.885,0.0
50848.0,STARLINK-3315,PAYLOAD,2022-10-20 10:03:38,15.08840429,0.0002708999999999,53.2163,328.969,29.1561,330.9582,6.8722e-05,8.05e-06,0.0,0 STARLINK-3315,1 50848U 22001AX  22293.41919119  .00000805  00000-0  68722-4 0  9995,2 50848  53.2163 328.9690 0002709  29.1561 330.9582 15.08840429 44948,6917.879,95.438,541.618,537.87,0.0
50848.0,STARLINK-3315,PAYLOAD,2022-10-20 19:35:56,15.08848018,0.0002631999999999,53.2164,327.1837,29.9172,330.19699999999995,3.6934e-05,2.99e-06,0.0,0 STARLINK-3315,1 50848U 22001AX  22293.81662535  .00000299  00000-0  36934-4 0  9993,2 50848  53.2164 327.1837 0002632  29.9172 330.1970 15.08848018 43690,6917.856,95.437,541.5419999999998,537.9,0.0
50848.0,STARLINK-3315,PAYLOAD,2022-10-21 11:29:47,15.08841913,0.0002646,53.2159,324.211,29.3428,330.7712,4.3235e-05,4e-06,0.0,0 STARLINK-3315,1 50848U 22001AX  22294.47902657  .00000400  00000-0  43235-4 0  9994,2 50848  53.2159 324.2110 0002646  29.3428 330.7712 15.08841913 43797,6917.875,95.437,541.57,537.909,0.0
50848.0,STARLINK-3315,PAYLOAD,2022-10-21 19:26:42,15.08853883,0.000269,53.2159,322.7241,28.74,331.374,-2.1841e-05,-6.36e-06,0.0,0 STARLINK-3315,1 50848U 22001AX  22294.81021913 -.00000636  00000-0 -21841-4 0  9991,2 50848  53.2159 322.7241 0002690  28.7400 331.3740 15.08853883 45156,6917.8380000000025,95.437,541.564,537.842,0.0
50848.0,STARLINK-3315,PAYLOAD,2022-10-22 09:45:11,15.08840183,0.0002602,53.216,320.0472,29.7228,330.3911,3.608e-05,2.86e-06,0.0,0 STARLINK-3315,1 50848U 22001AX  22295.40638334  .00000286  00000-0  36080-4 0  9998,2 50848  53.2160 320.0472 0002602  29.7228 330.3911 15.08840183 43939,6917.88,95.438,541.545,537.945,0.0
50848.0,STARLINK-3315,PAYLOAD,2022-10-22 19:17:29,15.08850764,0.0002644,53.2161,318.2632,29.873,330.2412,4.5808e-05,4.41e-06,0.0,0 STARLINK-3315,1 50848U 22001AX  22295.80381476  .00000441  00000-0  45808-4 0  9995,2 50848  53.2161 318.2632 0002644  29.8730 330.2412 15.08850764 45306,6917.847,95.437,541.5419999999998,537.883,0.0
50848.0,STARLINK-3315,PAYLOAD,2022-10-23 04:49:48,15.088393099999998,0.0002644,53.2165,316.48,25.1517,334.9604,0.00012337,1.676e-05,0.0,0 STARLINK-3315,1 50848U 22001AX  22296.20125677  .00001676  00000-0  12337-3 0  9990,2 50848  53.2165 316.4800 0002644  25.1517 334.9604 15.08839310 45363,6917.882,95.438,541.577,537.918,0.0
50848.0,STARLINK-3315,PAYLOAD,2022-10-23 11:11:20,15.0884689,0.0002708999999999,53.2154,315.2898,27.6879,332.4257,8.1357e-05,1.007e-05,0.0,0 STARLINK-3315,1 50848U 22001AX  22296.46621202  .00001007  00000-0  81357-4 0  9990,2 50848  53.2154 315.2898 0002709  27.6879 332.4257 15.08846890 44092,6917.859,95.437,541.5980000000002,537.85,0.0
50848.0,STARLINK-3315,PAYLOAD,2022-10-24 07:51:21,15.08839504,0.0002688,53.2161,311.4231,29.5293,330.5851,-1.161e-05,-4.73e-06,0.0,0 STARLINK-3315,1 50848U 22001AX  22297.32733519 -.00000473  00000-0 -11610-4 0  9994,2 50848  53.2161 311.4231 0002688  29.5293 330.5851 15.08839504 45539,6917.882,95.438,541.606,537.887,0.0
50848.0,STARLINK-3315,PAYLOAD,2022-10-24 23:45:14,15.08820645,0.000286,53.2151,308.4535,25.8845,334.2290000000001,-0.00016483,-2.9100000000000013e-05,0.0,0 STARLINK-3315,1 50848U 22001AX  22297.98975557 -.00002910  00000-0 -16483-3 0  9996,2 50848  53.2151 308.4535 0002860  25.8845 334.2290 15.08820645 45630,6917.94,95.439,541.783,537.826,0.0
50848.0,STARLINK-3315,PAYLOAD,2022-10-25 07:42:10,15.08829297,0.000281,53.2162,306.965,26.6798,333.4338,-8.1055e-05,-1.578e-05,0.0,0 STARLINK-3315,1 50848U 22001AX  22298.32094981 -.00001578  00000-0 -81055-4 0  9995,2 50848  53.2162 306.9650 0002810  26.6798 333.4338 15.08829297 45685,6917.913000000001,95.438,541.722,537.8340000000002,0.0
50848.0,STARLINK-3315,PAYLOAD,2022-10-26 04:22:10,15.08835376,0.0002728999999999,53.2152,303.0979,28.4949,331.6192,7.0827e-06,-1.76e-06,0.0,0 STARLINK-3315,1 50848U 22001AX  22299.18206842 -.00000176  00000-0  70827-5 0  9999,2 50848  53.2152 303.0979 0002729  28.4949 331.6192 15.08835376 45811,6917.895,95.438,541.6469999999998,537.872,0.0
50848.0,STARLINK-3315,PAYLOAD,2022-10-26 07:32:56,15.08836993,0.0002758,53.2153,302.5032,28.2823,331.8319,2.269e-05,7.3e-07,0.0,0 STARLINK-3315,1 50848U 22001AX  22299.31454766  .00000073  00000-0  22690-4 0  9993,2 50848  53.2153 302.5032 0002758  28.2823 331.8319 15.08836993 44523,6917.89,95.438,541.663,537.847,0.0
50848.0,STARLINK-3315,PAYLOAD,2022-10-27 08:59:07,15.08820603,0.0002998999999999,53.2158,297.7439,28.4567,331.6589,0.00028755,4.289e-05,0.0,0 STARLINK-3315,1 50848U 22001AX  22300.37439501  .00004289  00000-0  28755-3 0  9992,2 50848  53.2158 297.7439 0002999  28.4567 331.6589 15.08820603 44683,6917.94,95.439,541.879,537.73,0.0
